$CQCHH1783:SERVER:FP:CHH1783
$CQCHH1783:SERVER:CAPS
$ERserver:CHH1783:008::No flightplan
$FPCHH1783:SERVER:::::::::::::::
$CQCHH1783:SERVER:RN
#DPCHH1783
$ERserver:CHH1783:016:3:k-Unknown
错误代码
#DLSERVER:*:-6:-9
#SB24962:SINO3259:FSIPIR:1::Precision Manuals Design Group PMDG 777-300ER EVA Air B-16703:9.67:-0.59355:1348.00000:4.35166007.CAA1D5A8::B738
#SB24962:SINO3259:PIR
#SB24962:SINO3259:FSIP2PR:
#SBSINO9604:SINO3259:FSIPIR:1::Precision Manuals Design Group PMDG 777-300ER EVA Air B-16703:9.67:-0.59355:1348.00000:4.35166007.CAA1D5A8::B738
$ARserver:SINO7460:METAR:METAR OMDB 180400Z 07008KT 050V140 CAVOK 37/07 Q0998 NOSIG=
$CRSINO0368:CCA5872:CAPS:MODELDESC=1:ATCINFO=1
$CRSINO0368:CCA5872:RN:Jiarui Feng:USER:1
$CRSINO9617:SINO0368:RN:GJY:USER:1
#SBSINO0368:SINO9617:PI:GEN:EQUIPMENT=B738
#SBSINO0368:CCA5872:PI:X:0:1:~B737
$ERserver:SINO7460:009:OSDC:No such weather profile
$CQ5872:SINO3443:RN
#SB5872:SINO3443:FSIPIR:0::ZZZZ:-1.00000:-1.00000:-1.00000:::
#SB5872:SINO3443:PIR
#SB5872:SINO3443:FSIP2PR:
#APSINO9110:SERVER:SINO9110::1:1:1
#AAZGGG_CTR_OBS:SERVER:ATC9070:CHH9070::6
